start=new Date('2022-07-05T00:00:00.000Z').valueOf();
sats=[{"REV_AT_EPOCH":"6576","MEAN_ANOMALY":"287.8526","SEMIMAJOR_AXIS":"6925.399","OBJECT_NAME":"STARLINK-2542","EPOCH":"2022-07-04T20:32:56.370336","ELEMENT_SET_NO":"999","TLE_LINE2":"2 48292  53.0576 354.4935 0001507  72.2627 287.8526 15.06383702 65762","PERIOD":"95.593","CLASSIFICATION_TYPE":"U","BSTAR":"-0.00016691000000","LAUNCH_DATE":"2021-04-29","COUNTRY_CODE":"US","FILE":"3507746","MEAN_MOTION_DOT":"-0.00002766","CENTER_NAME":"EARTH","MEAN_ELEMENT_THEORY":"SGP4","OBJECT_TYPE":"PAYLOAD","GP_ID":"207417118","EPHEMERIS_TYPE":"0","MEAN_MOTION_DDOT":"0.0000000000000","ECCENTRICITY":"0.00015070","TLE_LINE1":"1 48292U 21036S   22185.85620799 -.00002766  00000-0 -16691-3 0  9990","OBJECT_ID":"2021-036S","MEAN_MOTION":"15.06383702","SITE":"AFETR","REF_FRAME":"TEME","DECAY_DATE":null,"NORAD_CAT_ID":"48292","TIME_SYSTEM":"UTC","RA_OF_ASC_NODE":"354.4935","PERIAPSIS":"546.220","RCS_SIZE":"LARGE","APOAPSIS":"548.307","ARG_OF_PERICENTER":"72.2627","INCLINATION":"53.0576"},{"EPOCH":"2022-07-04T20:06:21.141216","MEAN_ANOMALY":"283.7859","REV_AT_EPOCH":"6576","OBJECT_NAME":"STARLINK-2550","SEMIMAJOR_AXIS":"6925.373","MEAN_MOTION_DOT":"-0.00000910","FILE":"3507746","COUNTRY_CODE":"US","CLASSIFICATION_TYPE":"U","TLE_LINE2":"2 48293  53.0552 354.4170 0001404  76.3286 283.7859 15.06391866 65764","PERIOD":"95.593","BSTAR":"-0.00004222200000","ELEMENT_SET_NO":"999","LAUNCH_DATE":"2021-04-29","MEAN_ELEMENT_THEORY":"SGP4","OBJECT_TYPE":"PAYLOAD","CENTER_NAME":"EARTH","MEAN_MOTION_DDOT":"0.0000000000000","GP_ID":"207415879","EPHEMERIS_TYPE":"0","ECCENTRICITY":"0.00014040","SITE":"AFETR","REF_FRAME":"TEME","OBJECT_ID":"2021-036T","TLE_LINE1":"1 48293U 21036T   22185.83774469 -.00000910  00000-0 -42222-4 0  9992","MEAN_MOTION":"15.06391866","NORAD_CAT_ID":"48293","DECAY_DATE":null,"RCS_SIZE":"LARGE","ARG_OF_PERICENTER":"76.3286","APOAPSIS":"548.211","INCLINATION":"53.0552","TIME_SYSTEM":"UTC","PERIAPSIS":"546.266","RA_OF_ASC_NODE":"354.4170"},{"MEAN_ELEMENT_THEORY":"SGP4","OBJECT_TYPE":"PAYLOAD","CENTER_NAME":"EARTH","MEAN_MOTION_DDOT":"0.0000000000000","GP_ID":"207416628","EPHEMERIS_TYPE":"0","EPOCH":"2022-07-04T21:36:35.233056","REV_AT_EPOCH":"6577","MEAN_ANOMALY":"283.6228","SEMIMAJOR_AXIS":"6925.370","OBJECT_NAME":"STARLINK-2533","COUNTRY_CODE":"US","MEAN_MOTION_DOT":"-0.00000879","FILE":"3507746","ELEMENT_SET_NO":"999","TLE_LINE2":"2 48294  53.0567 354.1286 0001446  76.4922 283.6228 15.06393087 65777","BSTAR":"-0.00004013100000","PERIOD":"95.593","CLASSIFICATION_TYPE":"U","LAUNCH_DATE":"2021-04-29","NORAD_CAT_ID":"48294","DECAY_DATE":null,"RCS_SIZE":"LARGE","ARG_OF_PERICENTER":"76.4922","APOAPSIS":"548.236","INCLINATION":"53.0567","TIME_SYSTEM":"UTC","RA_OF_ASC_NODE":"354.1286","PERIAPSIS":"546.233","ECCENTRICITY":"0.00014460","SITE":"AFETR","REF_FRAME":"TEME","TLE_LINE1":"1 48294U 21036U   22185.90040779 -.00000879  00000-0 -40131-4 0  9992","OBJECT_ID":"2021-036U","MEAN_MOTION":"15.06393087"},{"ECCENTRICITY":"0.00011840","REF_FRAME":"TEME","SITE":"AFETR","MEAN_MOTION":"15.06383741","TLE_LINE1":"1 48295U 21036V   22185.89673188 -.00003060  00000-0 -18671-3 0  9995","OBJECT_ID":"2021-036V","NORAD_CAT_ID":"48295","DECAY_DATE":null,"INCLINATION":"53.0571","ARG_OF_PERICENTER":"78.9506","RCS_SIZE":"LARGE","APOAPSIS":"548.083","RA_OF_ASC_NODE":"354.1414","PERIAPSIS":"546.443","TIME_SYSTEM":"UTC","EPOCH":"2022-07-04T21:31:17.634432","SEMIMAJOR_AXIS":"6925.398","OBJECT_NAME":"STARLINK-2535","REV_AT_EPOCH":"6577","MEAN_ANOMALY":"281.1616","COUNTRY_CODE":"US","MEAN_MOTION_DOT":"-0.00003060","FILE":"3507746","LAUNCH_DATE":"2021-04-29","ELEMENT_SET_NO":"999","TLE_LINE2":"2 48295  53.0571 354.1414 0001184  78.9506 281.1616 15.06383741 65770","PERIOD":"95.593","BSTAR":"-0.00018671000000","CLASSIFICATION_TYPE":"U","OBJECT_TYPE":"PAYLOAD","MEAN_ELEMENT_THEORY":"SGP4","CENTER_NAME":"EARTH","MEAN_MOTION_DDOT":"0.0000000000000","EPHEMERIS_TYPE":"0","GP_ID":"207417376"},{"CENTER_NAME":"EARTH","MEAN_ELEMENT_THEORY":"SGP4","OBJECT_TYPE":"PAYLOAD","GP_ID":"207417618","EPHEMERIS_TYPE":"0","MEAN_MOTION_DDOT":"0.0000000000000","REV_AT_EPOCH":"6577","MEAN_ANOMALY":"278.0411","SEMIMAJOR_AXIS":"6925.395","OBJECT_NAME":"STARLINK-2546","EPOCH":"2022-07-04T21:25:58.996416","ELEMENT_SET_NO":"999","TLE_LINE2":"2 48296  53.0567 354.1624 0001361  82.0732 278.0411 15.06384910 65770","PERIOD":"95.593","CLASSIFICATION_TYPE":"U","BSTAR":"-0.00012397000000","LAUNCH_DATE":"2021-04-29","COUNTRY_CODE":"US","FILE":"3507746","MEAN_MOTION_DOT":"-0.00002127","DECAY_DATE":null,"NORAD_CAT_ID":"48296","TIME_SYSTEM":"UTC","PERIAPSIS":"546.317","RA_OF_ASC_NODE":"354.1624","APOAPSIS":"548.202","RCS_SIZE":"LARGE","ARG_OF_PERICENTER":"82.0732","INCLINATION":"53.0567","ECCENTRICITY":"0.00013610","TLE_LINE1":"1 48296U 21036W   22185.89304394 -.00002127  00000-0 -12397-3 0  9998","OBJECT_ID":"2021-036W","MEAN_MOTION":"15.06384910","SITE":"AFETR","REF_FRAME":"TEME"},{"GP_ID":"207416379","EPHEMERIS_TYPE":"0","MEAN_MOTION_DDOT":"0.0000000000000","CENTER_NAME":"EARTH","MEAN_ELEMENT_THEORY":"SGP4","OBJECT_TYPE":"PAYLOAD","ELEMENT_SET_NO":"999","PERIOD":"95.593","TLE_LINE2":"2 48297  53.0559 354.1699 0001570  54.3168 305.7967 15.06384877 65777","CLASSIFICATION_TYPE":"U","BSTAR":"-0.00017193000000","LAUNCH_DATE":"2021-04-29","COUNTRY_CODE":"US","MEAN_MOTION_DOT":"-0.00002840","FILE":"3507746","REV_AT_EPOCH":"6577","MEAN_ANOMALY":"305.7967","SEMIMAJOR_AXIS":"6925.395","OBJECT_NAME":"STARLINK-2544","EPOCH":"2022-07-04T21:20:40.748928","TIME_SYSTEM":"UTC","PERIAPSIS":"546.173","RA_OF_ASC_NODE":"354.1699","ARG_OF_PERICENTER":"54.3168","RCS_SIZE":"LARGE","APOAPSIS":"548.347","INCLINATION":"53.0559","DECAY_DATE":null,"NORAD_CAT_ID":"48297","TLE_LINE1":"1 48297U 21036X   22185.88936052 -.00002840  00000-0 -17193-3 0  9991","OBJECT_ID":"2021-036X","MEAN_MOTION":"15.06384877","SITE":"AFETR","REF_FRAME":"TEME","ECCENTRICITY":"0.00015700"},{"EPOCH":"2022-07-04T21:15:21.468096","MEAN_ANOMALY":"282.2063","REV_AT_EPOCH":"6577","OBJECT_NAME":"STARLINK-2559","SEMIMAJOR_AXIS":"6925.389","MEAN_MOTION_DOT":"-0.00000905","FILE":"3507746","COUNTRY_CODE":"US","PERIOD":"95.593","TLE_LINE2":"2 48298  53.0559 354.1951 0001399  77.9082 282.2063 15.06386795 65771","BSTAR":"-0.00004189800000","CLASSIFICATION_TYPE":"U","ELEMENT_SET_NO":"999","LAUNCH_DATE":"2021-04-29","MEAN_ELEMENT_THEORY":"SGP4","OBJECT_TYPE":"PAYLOAD","CENTER_NAME":"EARTH","MEAN_MOTION_DDOT":"0.0000000000000","GP_ID":"207416129","EPHEMERIS_TYPE":"0","ECCENTRICITY":"0.00013990","SITE":"AFETR","REF_FRAME":"TEME","OBJECT_ID":"2021-036Y","TLE_LINE1":"1 48298U 21036Y   22185.88566514 -.00000905  00000-0 -41898-4 0  9994","MEAN_MOTION":"15.06386795","NORAD_CAT_ID":"48298","DECAY_DATE":null,"RCS_SIZE":"LARGE","APOAPSIS":"548.223","ARG_OF_PERICENTER":"77.9082","INCLINATION":"53.0559","TIME_SYSTEM":"UTC","RA_OF_ASC_NODE":"354.1951","PERIAPSIS":"546.285"},{"MEAN_MOTION":"15.06394433","OBJECT_ID":"2021-036Z","TLE_LINE1":"1 48299U 21036Z   22185.88197089 -.00001849  00000-0 -10531-3 0  9999","REF_FRAME":"TEME","SITE":"AFETR","ECCENTRICITY":"0.00015330","RA_OF_ASC_NODE":"354.2037","PERIAPSIS":"546.169","TIME_SYSTEM":"UTC","INCLINATION":"53.0550","RCS_SIZE":"MEDIUM","ARG_OF_PERICENTER":"75.3774","APOAPSIS":"548.292","DECAY_DATE":null,"NORAD_CAT_ID":"48299","LAUNCH_DATE":"2021-04-29","ELEMENT_SET_NO":"999","PERIOD":"95.592","TLE_LINE2":"2 48299  53.0550 354.2037 0001533  75.3774 284.7384 15.06394433 65770","BSTAR":"-0.00010531000000","CLASSIFICATION_TYPE":"U","COUNTRY_CODE":"US","MEAN_MOTION_DOT":"-0.00001849","FILE":"3507746","SEMIMAJOR_AXIS":"6925.366","OBJECT_NAME":"STARLINK-2557","REV_AT_EPOCH":"6577","MEAN_ANOMALY":"284.7384","EPOCH":"2022-07-04T21:10:02.284896","EPHEMERIS_TYPE":"0","GP_ID":"207416877","MEAN_MOTION_DDOT":"0.0000000000000","CENTER_NAME":"EARTH","OBJECT_TYPE":"PAYLOAD","MEAN_ELEMENT_THEORY":"SGP4"},{"ARG_OF_PERICENTER":"76.5509","RCS_SIZE":"LARGE","APOAPSIS":"548.362","INCLINATION":"53.0543","TIME_SYSTEM":"UTC","RA_OF_ASC_NODE":"4.5426","PERIAPSIS":"546.182","NORAD_CAT_ID":"48300","DECAY_DATE":null,"SITE":"AFETR","REF_FRAME":"TEME","TLE_LINE1":"1 48300U 21036AA  22185.80734976 -.00003039  00000-0 -18527-3 0  9992","OBJECT_ID":"2021-036AA","MEAN_MOTION":"15.06380851","ECCENTRICITY":"0.00015740","MEAN_MOTION_DDOT":"0.0000000000000","GP_ID":"207392586","EPHEMERIS_TYPE":"0","MEAN_ELEMENT_THEORY":"SGP4","OBJECT_TYPE":"PAYLOAD","CENTER_NAME":"EARTH","COUNTRY_CODE":"US","MEAN_MOTION_DOT":"-0.00003039","FILE":"3507635","ELEMENT_SET_NO":"999","TLE_LINE2":"2 48300  53.0543   4.5426 0001574  76.5509 283.5655 15.06380851 66202","PERIOD":"95.593","BSTAR":"-0.00018527000000","CLASSIFICATION_TYPE":"U","LAUNCH_DATE":"2021-04-29","EPOCH":"2022-07-04T19:22:35.019264","REV_AT_EPOCH":"6620","MEAN_ANOMALY":"283.5655","SEMIMAJOR_AXIS":"6925.407","OBJECT_NAME":"STARLINK-2538"},{"LAUNCH_DATE":"2021-04-29","BSTAR":"-0.00011592000000","TLE_LINE2":"2 48301  53.0569   4.2670 0001348  87.0184 273.0959 15.06390249 65622","PERIOD":"95.593","CLASSIFICATION_TYPE":"U","ELEMENT_SET_NO":"999","MEAN_MOTION_DOT":"-0.00002007","FILE":"3507746","COUNTRY_CODE":"US","OBJECT_NAME":"STARLINK-2537","SEMIMAJOR_AXIS":"6925.378","MEAN_ANOMALY":"273.0959","REV_AT_EPOCH":"6562","EPOCH":"2022-07-04T20:52:48.223776","EPHEMERIS_TYPE":"0","GP_ID":"207415880","MEAN_MOTION_DDOT":"0.0000000000000","CENTER_NAME":"EARTH","OBJECT_TYPE":"PAYLOAD","MEAN_ELEMENT_THEORY":"SGP4","MEAN_MOTION":"15.06390249","OBJECT_ID":"2021-036AB","TLE_LINE1":"1 48301U 21036AB  22185.87000259 -.00002007  00000-0 -11592-3 0  9999","REF_FRAME":"TEME","SITE":"AFETR","ECCENTRICITY":"0.00013480","RA_OF_ASC_NODE":"4.2670","PERIAPSIS":"546.310","TIME_SYSTEM":"UTC","INCLINATION":"53.0569","RCS_SIZE":"LARGE","APOAPSIS":"548.177","ARG_OF_PERICENTER":"87.0184","DECAY_DATE":null,"NORAD_CAT_ID":"48301"}];
